[{"OBJECT_NAME":"STARLINK-5516","OBJECT_ID":"2023-094AM","EPOCH":"2026-03-09T22:00:01.999584","MEAN_MOTION":15.05511241,"ECCENTRICITY":0.00020084,"INCLINATION":43.0006,"RA_OF_ASC_NODE":16.2517,"ARG_OF_PERICENTER":243.6792,"MEAN_ANOMALY":65.2221,"EPHEMERIS_TYPE":0,"CLASSIFICATION_TYPE":"U","NORAD_CAT_ID":57253,"ELEMENT_SET_NO":999,"REV_AT_EPOCH":577,"BSTAR":0.0022825999,"MEAN_MOTION_DOT":0.00033336,"MEAN_MOTION_DDOT":0},{"OBJECT_NAME":"CZ-6A DEB","OBJECT_ID":"2022-151LV","EPOCH":"2026-03-09T17:28:26.716800","MEAN_MOTION":14.98158937,"ECCENTRICITY":0.00445354,"INCLINATION":98.6404,"RA_OF_ASC_NODE":145.743,"ARG_OF_PERICENTER":190.094,"MEAN_ANOMALY":169.939,"EPHEMERIS_TYPE":0,"CLASSIFICATION_TYPE":"U","NORAD_CAT_ID":54569,"ELEMENT_SET_NO":999,"REV_AT_EPOCH":17656,"BSTAR":0.0053350459,"MEAN_MOTION_DOT":0.00065033,"MEAN_MOTION_DDOT":0}]
